[{"OBJECT_NAME":"GPS BIIR-08","OBJECT_ID":"2003-005A","EPOCH":"2026-04-27T06:20:28.817952","MEAN_MOTION":2.00563298,"ECCENTRICITY":0.01481894,"INCLINATION":54.8924,"RA_OF_ASC_NODE":216.9917,"ARG_OF_PERICENTER":52.9628,"MEAN_ANOMALY":318.0481,"EPHEMERIS_TYPE":0,"CLASSIFICATION_TYPE":"U","NORAD_CAT_ID":27663,"ELEMENT_SET_NO":999,"REV_AT_EPOCH":17029,"BSTAR":0,"MEAN_MOTION_DOT":-4.5e-7,"MEAN_MOTION_DDOT":0},{"OBJECT_NAME":"GPS BIIR-11","OBJECT_ID":"2004-009A","EPOCH":"2026-04-26T12:55:48.508896","MEAN_MOTION":2.00556343,"ECCENTRICITY":0.01136838,"INCLINATION":54.8736,"RA_OF_ASC_NODE":277.7725,"ARG_OF_PERICENTER":170.8393,"MEAN_ANOMALY":190.7377,"EPHEMERIS_TYPE":0,"CLASSIFICATION_TYPE":"U","NORAD_CAT_ID":28190,"ELEMENT_SET_NO":999,"REV_AT_EPOCH":16191,"BSTAR":0,"MEAN_MOTION_DOT":-4.9e-7,"MEAN_MOTION_DDOT":0},{"OBJECT_NAME":"GPS BIIR-13","OBJECT_ID":"2004-045A","EPOCH":"2026-04-27T04:47:06.758592","MEAN_MOTION":2.00553547,"ECCENTRICITY":0.01700763,"INCLINATION":55.1651,"RA_OF_ASC_NODE":326.9497,"ARG_OF_PERICENTER":315.0111,"MEAN_ANOMALY":228.8065,"EPHEMERIS_TYPE":0,"CLASSIFICATION_TYPE":"U","NORAD_CAT_ID":28474,"ELEMENT_SET_NO":999,"REV_AT_EPOCH":15740,"BSTAR":0,"MEAN_MOTION_DOT":-7.6e-7,"MEAN_MOTION_DDOT":0},{"OBJECT_NAME":"GPS BIIR-14M","OBJECT_ID":"2005-038A","EPOCH":"2026-04-26T12:14:48.719040","MEAN_MOTION":2.00569234,"ECCENTRICITY":0.01277815,"INCLINATION":54.9216,"RA_OF_ASC_NODE":275.2615,"ARG_OF_PERICENTER":295.8485,"MEAN_ANOMALY":71.6096,"EPHEMERIS_TYPE":0,"CLASSIFICATION_TYPE":"U","NORAD_CAT_ID":28874,"ELEMENT_SET_NO":999,"REV_AT_EPOCH":15080,"BSTAR":0,"MEAN_MOTION_DOT":-4.9e-7,"MEAN_MOTION_DDOT":0},{"OBJECT_NAME":"METEOSAT-9 (MSG-2)","OBJECT_ID":"2005-049B","EPOCH":"2026-04-26T22:20:29.264064","MEAN_MOTION":1.00275091,"ECCENTRICITY":5.12e-5,"INCLINATION":9.2489,"RA_OF_ASC_NODE":54.663,"ARG_OF_PERICENTER":343.3476,"MEAN_ANOMALY":197.694,"EPHEMERIS_TYPE":0,"CLASSIFICATION_TYPE":"U","NORAD_CAT_ID":28912,"ELEMENT_SET_NO":999,"REV_AT_EPOCH":648,"BSTAR":0,"MEAN_MOTION_DOT":1.18e-6,"MEAN_MOTION_DDOT":0},{"OBJECT_NAME":"GPS BIIR-16M","OBJECT_ID":"2006-052A","EPOCH":"2026-04-24T13:40:50.622240","MEAN_MOTION":2.00555028,"ECCENTRICITY":0.00864806,"INCLINATION":54.9441,"RA_OF_ASC_NODE":216.131,"ARG_OF_PERICENTER":90.248,"MEAN_ANOMALY":270.7556,"EPHEMERIS_TYPE":0,"CLASSIFICATION_TYPE":"U","NORAD_CAT_ID":29601,"ELEMENT_SET_NO":999,"REV_AT_EPOCH":14233,"BSTAR":0,"MEAN_MOTION_DOT":-3.8e-7,"MEAN_MOTION_DDOT":0},{"OBJECT_NAME":"GPS BIIR-17M","OBJECT_ID":"2007-047A","EPOCH":"2026-04-26T20:52:01.035552","MEAN_MOTION":2.00557863,"ECCENTRICITY":0.01647872,"INCLINATION":54.0586,"RA_OF_ASC_NODE":82.1794,"ARG_OF_PERICENTER":86.5004,"MEAN_ANOMALY":275.3611,"EPHEMERIS_TYPE":0,"CLASSIFICATION_TYPE":"U","NORAD_CAT_ID":32260,"ELEMENT_SET_NO":999,"REV_AT_EPOCH":13578,"BSTAR":0,"MEAN_MOTION_DOT":3.0e-8,"MEAN_MOTION_DDOT":0},{"OBJECT_NAME":"GPS BIIR-18M","OBJECT_ID":"2007-062A","EPOCH":"2026-04-26T22:23:29.027040","MEAN_MOTION":2.00556888,"ECCENTRICITY":0.0034581,"INCLINATION":55.0742,"RA_OF_ASC_NODE":276.2115,"ARG_OF_PERICENTER":162.4186,"MEAN_ANOMALY":10.5045,"EPHEMERIS_TYPE":0,"CLASSIFICATION_TYPE":"U","NORAD_CAT_ID":32384,"ELEMENT_SET_NO":999,"REV_AT_EPOCH":13448,"BSTAR":0,"MEAN_MOTION_DOT":-5.2e-7,"MEAN_MOTION_DDOT":0},{"OBJECT_NAME":"GOES 14","OBJECT_ID":"2009-033A","EPOCH":"2026-04-27T07:09:33.494976","MEAN_MOTION":1.00116791,"ECCENTRICITY":0.00017816,"INCLINATION":1.5607,"RA_OF_ASC_NODE":83.6238,"ARG_OF_PERICENTER":314.8685,"MEAN_ANOMALY":94.4913,"EPHEMERIS_TYPE":0,"CLASSIFICATION_TYPE":"U","NORAD_CAT_ID":35491,"ELEMENT_SET_NO":999,"REV_AT_EPOCH":608,"BSTAR":0,"MEAN_MOTION_DOT":-5.9e-7,"MEAN_MOTION_DDOT":0},{"OBJECT_NAME":"GOES 15","OBJECT_ID":"2010-008A","EPOCH":"2026-04-27T01:59:21.598368","MEAN_MOTION":1.00272555,"ECCENTRICITY":0.00039905,"INCLINATION":1.1431,"RA_OF_ASC_NODE":83.7693,"ARG_OF_PERICENTER":23.6677,"MEAN_ANOMALY":200.7369,"EPHEMERIS_TYPE":0,"CLASSIFICATION_TYPE":"U","NORAD_CAT_ID":36411,"ELEMENT_SET_NO":999,"REV_AT_EPOCH":5912,"BSTAR":0,"MEAN_MOTION_DOT":1.3e-7,"MEAN_MOTION_DDOT":0},{"OBJECT_NAME":"GSAT0101 (GALILEO-PFM)","OBJECT_ID":"2011-060A","EPOCH":"2026-04-26T05:29:44.951136","MEAN_MOTION":1.70475694,"ECCENTRICITY":0.0003765,"INCLINATION":57.0096,"RA_OF_ASC_NODE":343.1709,"ARG_OF_PERICENTER":27.25,"MEAN_ANOMALY":332.8105,"EPHEMERIS_TYPE":0,"CLASSIFICATION_TYPE":"U","NORAD_CAT_ID":37846,"ELEMENT_SET_NO":999,"REV_AT_EPOCH":9023,"BSTAR":0,"MEAN_MOTION_DOT":-9.1e-7,"MEAN_MOTION_DDOT":0},{"OBJECT_NAME":"GSAT0102 (GALILEO-FM2)","OBJECT_ID":"2011-060B","EPOCH":"2026-04-26T10:51:47.390112","MEAN_MOTION":1.70475958,"ECCENTRICITY":0.00047089,"INCLINATION":57.0107,"RA_OF_ASC_NODE":343.1653,"ARG_OF_PERICENTER":9.1421,"MEAN_ANOMALY":173.7389,"EPHEMERIS_TYPE":0,"CLASSIFICATION_TYPE":"U","NORAD_CAT_ID":37847,"ELEMENT_SET_NO":999,"REV_AT_EPOCH":9024,"BSTAR":0,"MEAN_MOTION_DOT":-9.1e-7,"MEAN_MOTION_DDOT":0},{"OBJECT_NAME":"LUCH 5A","OBJECT_ID":"2011-074B","EPOCH":"2026-04-27T02:34:38.741376","MEAN_MOTION":1.00273004,"ECCENTRICITY":0.0002752,"INCLINATION":8.6271,"RA_OF_ASC_NODE":74.5436,"ARG_OF_PERICENTER":305.3035,"MEAN_ANOMALY":40.8405,"EPHEMERIS_TYPE":0,"CLASSIFICATION_TYPE":"U","NORAD_CAT_ID":37951,"ELEMENT_SET_NO":999,"REV_AT_EPOCH":5253,"BSTAR":0,"MEAN_MOTION_DOT":-5.4e-7,"MEAN_MOTION_DDOT":0},{"OBJECT_NAME":"METEOSAT-10 (MSG-3)","OBJECT_ID":"2012-035B","EPOCH":"2026-04-27T02:53:38.770368","MEAN_MOTION":1.00268137,"ECCENTRICITY":0.00020965,"INCLINATION":4.5534,"RA_OF_ASC_NODE":61.2362,"ARG_OF_PERICENTER":313.1941,"MEAN_ANOMALY":244.2674,"EPHEMERIS_TYPE":0,"CLASSIFICATION_TYPE":"U","NORAD_CAT_ID":38552,"ELEMENT_SET_NO":999,"REV_AT_EPOCH":5034,"BSTAR":0,"MEAN_MOTION_DOT":-1.4e-7,"MEAN_MOTION_DDOT":0},{"OBJECT_NAME":"SARSAT 13 (METOP-B)","OBJECT_ID":"2012-049A","EPOCH":"2026-04-27T05:25:38.623872","MEAN_MOTION":14.21433454,"ECCENTRICITY":0.00034206,"INCLINATION":98.6547,"RA_OF_ASC_NODE":169.7314,"ARG_OF_PERICENTER":122.5374,"MEAN_ANOMALY":237.6134,"EPHEMERIS_TYPE":0,"CLASSIFICATION_TYPE":"U","NORAD_CAT_ID":38771,"ELEMENT_SET_NO":999,"REV_AT_EPOCH":70602,"BSTAR":7.6173769e-5,"MEAN_MOTION_DOT":1.23e-6,"MEAN_MOTION_DDOT":0},{"OBJECT_NAME":"GPS BIIF-3","OBJECT_ID":"2012-053A","EPOCH":"2026-04-23T23:20:21.228288","MEAN_MOTION":2.00566553,"ECCENTRICITY":0.0177937,"INCLINATION":53.5743,"RA_OF_ASC_NODE":145.8203,"ARG_OF_PERICENTER":65.1328,"MEAN_ANOMALY":296.7656,"EPHEMERIS_TYPE":0,"CLASSIFICATION_TYPE":"U","NORAD_CAT_ID":38833,"ELEMENT_SET_NO":999,"REV_AT_EPOCH":9835,"BSTAR":0,"MEAN_MOTION_DOT":4.0e-7,"MEAN_MOTION_DDOT":0},{"OBJECT_NAME":"GSAT0103 (GALILEO-FM3)","OBJECT_ID":"2012-055A","EPOCH":"2026-04-26T20:32:37.148064","MEAN_MOTION":1.70473386,"ECCENTRICITY":0.00059116,"INCLINATION":55.7754,"RA_OF_ASC_NODE":102.9524,"ARG_OF_PERICENTER":295.7911,"MEAN_ANOMALY":64.1419,"EPHEMERIS_TYPE":0,"CLASSIFICATION_TYPE":"U","NORAD_CAT_ID":38857,"ELEMENT_SET_NO":999,"REV_AT_EPOCH":8413,"BSTAR":0,"MEAN_MOTION_DOT":4.4e-7,"MEAN_MOTION_DDOT":0}]
